<?xml version="1.0" encoding="UTF-8"?>
<ndm xmlns:xsi="http://www.w3.org/2001/XMLSchema-instance" xsi:noNamespaceSchemaLocation="https://sanaregistry.org/r/ndmxml_unqualified/ndmxml-2.0.0-master-2.0.xsd">
<omm id="CCSDS_OMM_VERS" version="2.0">
<header><CREATION_DATE/><ORIGINATOR/></header><body><segment><metadata><OBJECT_NAME>ORBCOMM FM115</OBJECT_NAME><OBJECT_ID>2015-081H</OBJECT_ID><CENTER_NAME>EARTH</CENTER_NAME><REF_FRAME>TEME</REF_FRAME><TIME_SYSTEM>UTC</TIME_SYSTEM><MEAN_ELEMENT_THEORY>SGP4</MEAN_ELEMENT_THEORY></metadata><data><meanElements><EPOCH>2025-03-16T19:35:56.295456</EPOCH><MEAN_MOTION>14.62211191</MEAN_MOTION><ECCENTRICITY>.0001554</ECCENTRICITY><INCLINATION>46.9966</INCLINATION><RA_OF_ASC_NODE>118.7985</RA_OF_ASC_NODE><ARG_OF_PERICENTER>300.4723</ARG_OF_PERICENTER><MEAN_ANOMALY>59.6010</MEAN_ANOMALY></meanElements><tleParameters><EPHEMERIS_TYPE>0</EPHEMERIS_TYPE><CLASSIFICATION_TYPE>U</CLASSIFICATION_TYPE><NORAD_CAT_ID>41186</NORAD_CAT_ID><ELEMENT_SET_NO>999</ELEMENT_SET_NO><REV_AT_EPOCH>49425</REV_AT_EPOCH><BSTAR>.43834E-3</BSTAR><MEAN_MOTION_DOT>.2055E-4</MEAN_MOTION_DOT><MEAN_MOTION_DDOT>0</MEAN_MOTION_DDOT></tleParameters></data></segment></body></omm>
<omm id="CCSDS_OMM_VERS" version="2.0">
<header><CREATION_DATE/><ORIGINATOR/></header><body><segment><metadata><OBJECT_NAME>ORBCOMM FM108</OBJECT_NAME><OBJECT_ID>2015-081J</OBJECT_ID><CENTER_NAME>EARTH</CENTER_NAME><REF_FRAME>TEME</REF_FRAME><TIME_SYSTEM>UTC</TIME_SYSTEM><MEAN_ELEMENT_THEORY>SGP4</MEAN_ELEMENT_THEORY></metadata><data><meanElements><EPOCH>2025-03-16T15:53:43.380960</EPOCH><MEAN_MOTION>14.57916461</MEAN_MOTION><ECCENTRICITY>.0003717</ECCENTRICITY><INCLINATION>47.0034</INCLINATION><RA_OF_ASC_NODE>183.8579</RA_OF_ASC_NODE><ARG_OF_PERICENTER>245.2758</ARG_OF_PERICENTER><MEAN_ANOMALY>114.7741</MEAN_ANOMALY></meanElements><tleParameters><EPHEMERIS_TYPE>0</EPHEMERIS_TYPE><CLASSIFICATION_TYPE>U</CLASSIFICATION_TYPE><NORAD_CAT_ID>41187</NORAD_CAT_ID><ELEMENT_SET_NO>999</ELEMENT_SET_NO><REV_AT_EPOCH>49329</REV_AT_EPOCH><BSTAR>.65957E-3</BSTAR><MEAN_MOTION_DOT>.2886E-4</MEAN_MOTION_DOT><MEAN_MOTION_DDOT>0</MEAN_MOTION_DDOT></tleParameters></data></segment></body></omm>
<omm id="CCSDS_OMM_VERS" version="2.0">
<header><CREATION_DATE/><ORIGINATOR/></header><body><segment><metadata><OBJECT_NAME>ORBCOMM FM117</OBJECT_NAME><OBJECT_ID>2015-081K</OBJECT_ID><CENTER_NAME>EARTH</CENTER_NAME><REF_FRAME>TEME</REF_FRAME><TIME_SYSTEM>UTC</TIME_SYSTEM><MEAN_ELEMENT_THEORY>SGP4</MEAN_ELEMENT_THEORY></metadata><data><meanElements><EPOCH>2025-03-16T16:43:49.453824</EPOCH><MEAN_MOTION>14.57915145</MEAN_MOTION><ECCENTRICITY>.0004153</ECCENTRICITY><INCLINATION>46.9998</INCLINATION><RA_OF_ASC_NODE>182.4868</RA_OF_ASC_NODE><ARG_OF_PERICENTER>251.6911</ARG_OF_PERICENTER><MEAN_ANOMALY>108.3523</MEAN_ANOMALY></meanElements><tleParameters><EPHEMERIS_TYPE>0</EPHEMERIS_TYPE><CLASSIFICATION_TYPE>U</CLASSIFICATION_TYPE><NORAD_CAT_ID>41188</NORAD_CAT_ID><ELEMENT_SET_NO>999</ELEMENT_SET_NO><REV_AT_EPOCH>49334</REV_AT_EPOCH><BSTAR>.66451E-3</BSTAR><MEAN_MOTION_DOT>.2909E-4</MEAN_MOTION_DOT><MEAN_MOTION_DDOT>0</MEAN_MOTION_DDOT></tleParameters></data></segment></body></omm>
<omm id="CCSDS_OMM_VERS" version="2.0">
<header><CREATION_DATE/><ORIGINATOR/></header><body><segment><metadata><OBJECT_NAME>ORBCOMM FM116</OBJECT_NAME><OBJECT_ID>2015-081L</OBJECT_ID><CENTER_NAME>EARTH</CENTER_NAME><REF_FRAME>TEME</REF_FRAME><TIME_SYSTEM>UTC</TIME_SYSTEM><MEAN_ELEMENT_THEORY>SGP4</MEAN_ELEMENT_THEORY></metadata><data><meanElements><EPOCH>2025-03-16T21:26:51.563904</EPOCH><MEAN_MOTION>14.57881421</MEAN_MOTION><ECCENTRICITY>.0001459</ECCENTRICITY><INCLINATION>47.0014</INCLINATION><RA_OF_ASC_NODE>271.4234</RA_OF_ASC_NODE><ARG_OF_PERICENTER>320.9225</ARG_OF_PERICENTER><MEAN_ANOMALY>39.1555</MEAN_ANOMALY></meanElements><tleParameters><EPHEMERIS_TYPE>0</EPHEMERIS_TYPE><CLASSIFICATION_TYPE>U</CLASSIFICATION_TYPE><NORAD_CAT_ID>41189</NORAD_CAT_ID><ELEMENT_SET_NO>999</ELEMENT_SET_NO><REV_AT_EPOCH>49225</REV_AT_EPOCH><BSTAR>.41505E-3</BSTAR><MEAN_MOTION_DOT>.1751E-4</MEAN_MOTION_DOT><MEAN_MOTION_DDOT>0</MEAN_MOTION_DDOT></tleParameters></data></segment></body></omm>
</ndm>
