ORBCOMM FM115           
1 41186U 15081H   25075.81662379  .00002055  00000+0  43834-3 0  9992
2 41186  46.9966 118.7985 0001554 300.4723  59.6010 14.62211191494258
ORBCOMM FM108           
1 41187U 15081J   25075.66230765  .00002886  00000+0  65957-3 0  9998
2 41187  47.0034 183.8579 0003717 245.2758 114.7741 14.57916461493299
ORBCOMM FM117           
1 41188U 15081K   25075.69710016  .00002909  00000+0  66451-3 0  9990
2 41188  46.9998 182.4868 0004153 251.6911 108.3523 14.57915145493341
ORBCOMM FM116           
1 41189U 15081L   25075.89365236  .00001751  00000+0  41505-3 0  9990
2 41189  47.0014 271.4234 0001459 320.9225  39.1555 14.57881421492257
